OBJECT_NAME,OBJECT_ID,EPOCH,MEAN_MOTION,ECCENTRICITY,INCLINATION,RA_OF_ASC_NODE,ARG_OF_PERICENTER,MEAN_ANOMALY,EPHEMERIS_TYPE,CLASSIFICATION_TYPE,NORAD_CAT_ID,ELEMENT_SET_NO,REV_AT_EPOCH,BSTAR,MEAN_MOTION_DOT,MEAN_MOTION_DDOT
ELEKTRO-L 2,2015-074A,2026-06-30T03:05:16.247328,1.00271247,.0000706,6.7257,70.3668,276.5342,323.0657,0,U,41105,999,3863,0,-.112E-5,0
COSMOS 2513,2015-075A,2026-06-30T07:36:42.412320,1.00270651,.00035336,0.0725,105.5674,334.0021,33.2319,0,U,41121,999,3868,0,-.127E-5,0
EXPRESS-AMU1,2015-082A,2026-06-30T12:32:13.391808,1.00273994,.00030105,0.0216,68.7845,32.7700,41.1823,0,U,41191,999,3840,0,.166E-5,0
GAOFEN-4,2015-083A,2026-06-30T19:42:44.162208,1.00269107,.00042263,0.3919,83.8517,111.7116,124.6883,0,U,41194,999,3866,0,-.324E-5,0
BELINTERSAT-1,2016-001A,2026-06-30T21:30:38.729376,1.00272333,.00017061,0.0037,100.4328,334.4458,218.2307,0,U,41238,999,3837,0,.117E-5,0
IRNSS-1E,2016-003A,2026-06-29T19:51:21.425184,1.00272765,.00192006,33.2608,59.5670,178.7998,89.1855,0,U,41241,999,3820,0,-.31E-5,0
EUTELSAT 9B,2016-005A,2026-06-30T21:55:38.648064,1.00271325,.00016685,0.0542,67.8175,6.0785,182.9767,0,U,41310,999,3825,0,.72E-6,0
SES-9,2016-013A,2026-06-29T21:28:50.622240,1.00265394,.00023173,0.0169,324.8194,119.9023,263.7565,0,U,41380,999,3756,0,-.333E-5,0
EUTELSAT 65 WEST A,2016-014A,2026-06-30T05:12:39.104064,1.00270675,.00027967,0.0743,309.1572,148.7529,193.3408,0,U,41382,999,3765,0,-.265E-5,0
IRNSS-1F,2016-015A,2026-06-30T19:21:44.695584,1.00274413,.00174357,5.3823,96.4719,184.0893,321.1689,0,U,41384,999,3780,0,.164E-5,0
BEIDOU-2 IGSO-6,2016-021A,2026-06-26T02:38:38.671584,1.00258926,.0057558,60.2385,37.9495,231.0163,137.2672,0,U,41434,999,3757,0,-.145E-5,0
IRNSS-1G,2016-027A,2026-06-30T16:24:05.094720,1.00280808,.00058067,5.2280,97.1626,4.8233,192.2540,0,U,41469,999,3731,0,-.327E-5,0
JCSAT-2B,2016-028A,2026-06-30T18:13:45.170976,1.00295722,.00023112,0.0177,13.4170,114.0761,218.7800,0,U,41471,999,3726,0,-.149E-5,0
THAICOM 8,2016-031A,2026-06-30T19:34:52.415616,1.00273495,.0003823,0.0509,24.8741,42.7978,223.4183,0,U,41552,999,3685,0,-.111E-5,0
INTELSAT 31 (IS-31),2016-035A,2026-06-30T15:20:05.382816,1.00270311,.0000635,0.0213,275.8862,9.6314,128.1542,0,U,41581,999,3681,0,-.14E-5,0
BEIDOU-2 G7,2016-037A,2026-06-30T19:44:06.530784,1.00270500,.00068128,1.7527,69.4303,3.0878,252.9455,0,U,41586,999,702,0,-.344E-5,0
ABS-2A (MONGOLSAT-1),2016-038A,2026-06-29T23:25:38.653248,1.00270914,.00016084,0.0269,13.8911,41.5950,288.7278,0,U,41588,999,3683,0,0,0
EUTELSAT 117 WEST B,2016-038B,2026-06-30T16:56:31.984800,1.00267996,.00002849,0.0059,196.8015,86.3239,132.7723,0,U,41589,999,3679,0,0,0
BRISAT,2016-039A,2026-06-30T16:30:12.008736,1.00269381,.00022874,0.0214,2.4695,95.8412,218.4839,0,U,41591,999,3674,0,0,0
ECHOSTAR 18,2016-039B,2026-06-30T01:48:32.227200,1.00269928,.00017028,0.0268,30.1904,72.7147,141.0152,0,U,41592,999,3675,0,0,0
MUOS-5,2016-041A,2026-06-30T16:59:24.209376,1.00272736,.01983332,2.1754,301.9031,260.5742,225.9731,0,U,41622,999,3722,0,-.118E-5,0
TIANTONG-1 1,2016-048A,2026-06-30T22:28:57.620928,1.00269247,.00059037,3.8742,43.5228,52.6690,261.4452,0,U,41725,999,3640,0,-.309E-5,0
JCSAT-16,2016-050A,2026-06-30T03:01:38.527968,1.00270750,.00013484,0.0185,24.0660,82.7204,0.7708,0,U,41729,999,3620,0,-.24E-5,0
USA 270,2016-052A,2026-06-25T15:01:47.554176,0.99500516,.0000668,4.2178,77.0981,157.1810,56.2495,0,U,41744,999,2821,0,-.284E-5,0
USA 271,2016-052B,2026-06-25T18:13:09.824736,0.99833204,.0001955,4.1909,77.1447,290.7679,281.9940,0,U,41745,999,2800,0,-.236E-5,0
INTELSAT 36 (IS-36),2016-053A,2026-06-30T21:38:38.652000,1.00270569,.0002122,0.0100,15.4066,334.3387,322.3814,0,U,41747,999,3609,0,-.14E-6,0
INSAT-3DR,2016-054A,2026-06-30T21:22:38.769600,1.00272402,.00100551,0.1389,85.9875,186.5887,41.0171,0,U,41752,999,3595,0,-.66E-6,0
GSAT-18,2016-060A,2026-06-30T11:00:26.811360,1.00272276,.00057877,0.0896,92.3664,347.6487,77.6028,0,U,41793,999,3566,0,-.66E-6,0
SKY MUSTER 2 (NBN1B),2016-060B,2026-06-30T05:23:38.673888,1.00270686,.00018036,0.0167,332.7507,120.8738,50.3811,0,U,41794,999,3565,0,-.234E-5,0
HIMAWARI-9,2016-064A,2026-06-30T16:27:19.784160,1.00269249,.00014661,0.0355,265.4116,222.5242,178.3897,0,U,41836,999,3534,0,-.265E-5,0
SHIJIAN-17 (SJ-17),2016-065A,2026-06-30T18:31:20.984160,0.99860394,.0002242,5.7854,72.4442,32.9051,306.8431,0,U,41838,999,3533,0,.13E-5,0
GOES 16,2016-071A,2026-06-30T16:59:54.161664,1.00272105,.00005935,0.3732,85.5219,21.9495,321.5863,0,U,41866,999,3523,0,-.81E-6,0
TIANLIAN 1-04,2016-072A,2026-06-30T18:20:14.548992,1.00274429,.00430613,0.9032,82.8341,90.4090,197.4670,0,U,41869,999,3543,0,.41E-6,0
WGS F8 (USA 272),2016-075A,2026-06-30T09:42:38.793024,1.00266774,.00002235,0.0483,59.1040,148.1005,6.7973,0,U,41879,999,3495,0,0,0
FENGYUN 4A,2016-077A,2026-06-30T19:47:51.171648,1.00277086,.00079203,2.3560,80.1415,158.0711,101.3415,0,U,41882,999,3506,0,-.348E-5,0
ECHOSTAR 19,2016-079A,2026-06-29T20:06:55.891296,1.00274001,.00015291,0.0185,24.7623,76.8617,20.9216,0,U,41893,999,3483,0,-.128E-5,0
JCSAT-110A (JCSAT-15),2016-082A,2026-06-30T18:01:16.367232,1.00270264,.00008636,0.0186,14.9478,91.3805,192.8726,0,U,41903,999,3489,0,-.34E-5,0
STAR ONE D1,2016-082B,2026-06-30T18:48:26.844192,1.00272047,.00024745,0.0026,359.1004,117.9725,359.8897,0,U,41904,999,3491,0,-.2E-5,0
TJS-2,2017-001A,2026-06-30T22:29:38.789664,1.00272943,.00008406,0.8672,85.1676,51.1421,186.6474,0,U,41911,999,3485,0,.3E-7,0
SBIRS GEO-4 (USA 273),2017-004A,2026-06-30T19:18:30.007872,1.00286461,.0003049,2.2677,43.6283,56.0725,129.8049,0,U,41937,999,3473,0,.135E-5,0
HISPASAT 36W-1,2017-006A,2026-06-30T03:38:19.550688,1.00273083,.00010925,0.0131,279.7540,170.7506,206.3040,0,U,41942,999,3437,0,-.233E-5,0
TELKOM 3S,2017-007A,2026-06-30T07:47:37.516992,1.00271221,.00025186,0.0230,76.9567,24.0057,52.3441,0,U,41944,999,3427,0,-.352E-5,0
INTELSAT 32E (IS-32E),2017-007B,2026-06-29T12:12:28.637856,1.00268307,.0000889,0.0243,13.6582,344.8527,59.0307,0,U,41945,999,3434,0,0,0
ECHOSTAR 23,2017-014A,2026-06-30T12:14:42.430848,1.00271838,.00019474,0.0179,6.8407,92.9822,252.5352,0,U,42070,999,3405,0,-.47E-6,0
WGS F9 (USA 275),2017-016A,2026-06-30T21:47:38.433408,1.00271524,.00003533,0.0260,7.2120,56.5164,170.1724,0,U,42075,999,3403,0,0,0
SES-10,2017-017A,2026-06-30T13:45:29.664864,1.00269215,.00030324,0.0180,36.9617,66.4201,314.7290,0,U,42432,999,3388,0,-.262E-5,0
CHINASAT 16 (SJ-13),2017-018A,2026-06-30T02:37:21.991584,1.00274688,.00037559,0.0947,90.2461,122.3355,215.4609,0,U,42662,999,3387,0,-.342E-5,0
KOREASAT 7,2017-023A,2026-06-30T07:47:00.077280,1.00269987,.0000574,0.0280,37.9037,56.5355,56.5997,0,U,42691,999,3350,0,-.351E-5,0
SGDC,2017-023B,2026-06-30T10:25:27.509088,1.00271873,.00028131,0.0310,68.2420,36.7838,255.0007,0,U,42692,999,3354,0,-.239E-5,0
GSAT-9,2017-024A,2026-06-30T23:13:38.817696,1.00273339,.00021003,0.0511,89.7590,20.3864,254.6052,0,U,42695,999,3343,0,-.276E-5,0
INMARSAT 5-F4,2017-025A,2026-06-30T17:46:00.477984,1.00267741,.00002207,0.0264,35.0331,87.5691,119.2130,0,U,42698,999,3341,0,0,0
SES-15,2017-026A,2026-06-30T16:53:02.319648,1.00268794,.00007359,0.0216,335.7797,110.5888,316.4941,0,U,42709,999,756,0,.71E-6,0
QZS-2 (MICHIBIKI-2),2017-028A,2026-06-30T11:22:28.547328,1.00280487,.07588097,39.4073,242.9582,269.4153,78.9182,0,U,42738,999,775,0,-.114E-5,0
VIASAT-2,2017-029A,2026-06-29T13:47:26.255616,1.00273030,.00005004,0.0183,302.2304,140.7256,331.6830,0,U,42740,999,3332,0,-.254E-5,0
EUTELSAT 172B,2017-029B,2026-06-30T18:18:52.180416,1.00270626,.00003693,0.0184,109.8412,304.2513,311.4568,0,U,42741,999,3387,0,.5E-7,0
GSAT-19,2017-031A,2026-06-30T21:30:38.729376,1.00272904,.00070374,0.0218,41.3249,38.6867,209.4808,0,U,42747,999,3328,0,0,0
ECHOSTAR 21,2017-032A,2026-06-30T12:24:49.023648,1.00274394,.0002581,1.7698,356.5504,95.1200,23.4050,0,U,42749,999,3323,0,.78E-6,0
BULGARIASAT-1,2017-038A,2026-06-30T21:55:38.648064,1.00270721,.00030033,0.0384,74.7709,30.3047,144.7012,0,U,42801,999,3298,0,.21E-6,0
HELLAS-SAT 3,2017-040A,2026-06-30T17:41:00.957696,1.00271352,.00041928,0.0473,44.6365,18.3370,160.0728,0,U,42814,999,3294,0,.163E-5,0
GSAT-17,2017-040B,2026-06-30T23:13:38.817696,1.00271204,.00013517,0.0384,86.6614,197.1190,77.1643,0,U,42815,999,3292,0,-.247E-5,0
INTELSAT 35E (IS-35E),2017-041A,2026-06-30T19:02:44.088576,1.00267453,.0002308,0.0224,23.6594,75.9559,70.4225,0,U,42818,999,3295,0,0,0
COSMOS 2520,2017-046A,2026-06-30T04:01:24.838176,1.00265800,.0000635,0.0418,103.8071,23.8418,255.9278,0,U,42907,999,3252,0,.148E-5,0
TDRS 13,2017-047A,2026-06-30T22:47:39.050592,1.00272650,.00151762,3.4548,3.0624,108.3577,138.0869,0,U,42915,999,3248,0,-.9E-6,0
QZS-3 (MICHIBIKI-3),2017-048A,2026-06-30T19:48:43.587936,1.00269965,.00022909,0.0742,138.7733,318.2148,246.1181,0,U,42917,999,3239,0,-.337E-5,0
AMAZONAS 5,2017-053A,2026-06-29T13:49:56.017056,1.00270165,.00018781,0.0312,327.8909,96.5276,359.7120,0,U,42934,999,3216,0,-.271E-5,0
ASIASAT 9,2017-057A,2026-06-30T16:51:38.560896,1.00269722,.00025049,0.0442,61.5216,30.1213,202.2028,0,U,42942,999,3199,0,0,0
INTELSAT 37E (IS-37E),2017-059A,2026-06-30T22:47:39.050592,1.00268274,.00028862,0.0249,34.9543,68.7810,139.1811,0,U,42950,999,3220,0,0,0
BSAT-4A,2017-059B,2026-06-29T21:29:20.573664,1.00272835,.00041043,0.0395,26.4530,47.8238,275.8622,0,U,42951,999,3192,0,-.339E-5,0
QZS-4 (MICHIBIKI-4),2017-062A,2026-06-30T07:50:44.718144,1.00295775,.07467097,40.1009,343.3188,268.3129,282.6055,0,U,42965,999,3193,0,-.331E-5,0
SES-11 (ECHOSTAR 105),2017-063A,2026-06-30T16:59:54.161664,1.00271757,.00029923,0.0236,322.2765,135.2890,331.2389,0,U,42967,999,3185,0,-.79E-6,0
KOREASAT 5A,2017-067A,2026-06-30T18:02:08.784384,1.00270581,.00010223,0.0122,37.8259,63.5309,201.1475,0,U,42984,999,3166,0,-.347E-5,0
ALCOMSAT 1,2017-078A,2026-06-30T19:05:28.824864,1.00271073,.00026179,0.0195,50.6679,43.9637,85.7884,0,U,43039,999,3143,0,-.176E-5,0
